QIANFAN-33              
1 61566U 24185Q   25247.88029023  .00000508  00000+0  35853-3 0  9995
2 61566  88.9740  89.8438 0004816 278.7854  81.2777 13.96427682 55361
QIANFAN-34              
1 61567U 24185R   25247.89411315  .00000502  00000+0  31972-3 0  9998
2 61567  88.9717  89.5366 0003749 289.1124  70.9650 14.02179735 55505
QIANFAN-35              
1 61568U 24185S   25247.88338857  .00001218  00000+0  48843-3 0  9997
2 61568  88.9743  88.4966 0004567 244.1068 115.9656 14.27706415 56073
QIANFAN-36              
1 61569U 24185T   25247.90479860  .00000156  00000+0  20707-3 0  9990
2 61569  88.9727  91.3538 0005534 348.0684  12.0338 13.55550597 54538
QIANFAN-37              
1 62238U 24232B   25247.89386113  .00000088  00000+0  11752-3 0  9997
2 62238  88.9946  51.3060 0002251  77.7467 282.3936 13.50961786 85822
QIANFAN-38              
1 62239U 24232C   25247.91873778  .00000058  00000+0  70821-4 0  9999
2 62239  88.9952  51.2125 0016314 117.9445 242.3360 13.50965689 85888
QIANFAN-39              
1 62240U 24232D   25247.92593055  .00000255  00000+0  10219-3 0  9992
2 62240  88.9954  48.6050 0017703  48.2312 312.0390 14.25240430 87312
QIANFAN-40              
1 62241U 24232E   25247.87758469  .00000061  00000+0  76352-4 0  9995
2 62241  88.9981  50.7734 0015217 124.9482 235.3101 13.50962198 86241
